name,phone,email,address,postalZip,country
Alden Livingston,(214) 505-8551,eu.eleifend.nec@protonmail.net,778-4161 Semper Ave,6255,Mexico
Brian Nicholson,1-637-545-1569,adipiscing.mauris.molestie@aol.edu,Ap #187-4369 Sapien. St.,882372,Nigeria
Callum Salinas,(248) 433-3563,dictum.augue@hotmail.com,"P.O. Box 180, 2036 Lobortis St.",12070,Ukraine
Xaviera Hubbard,1-270-461-1533,justo.sit@yahoo.net,Ap #189-1768 Ridiculus Rd.,44757,Russian Federation
Vanna George,1-565-626-4342,non.hendrerit.id@protonmail.couk,"P.O. Box 293, 1048 Molestie St.",43-81,Austria
Kane Mccoy,(487) 972-9567,justo.nec.ante@outlook.edu,5736 Dolor. Street,5438,Russian Federation
Summer Jensen,(510) 397-5201,metus.vitae@outlook.ca,"P.O. Box 194, 3459 Lobortis Ave",74683,Philippines
Marvin Lucas,(826) 662-6265,magnis.dis.parturient@google.net,Ap #242-8400 Aliquam Road,8288,Germany
Clayton Martinez,1-878-472-0402,egestas.fusce.aliquet@aol.couk,Ap #592-9237 Erat Rd.,5619 IH,Vietnam
Blossom Diaz,1-812-138-3266,magna.malesuada@aol.net,"9176 Consectetuer, Rd.",0988-1437,Ukraine
Mona O'Neill,(796) 858-0875,mauris.blandit@outlook.net,Ap #568-2370 Eu St.,664528,Norway
Reese Yates,(345) 726-7652,magna@hotmail.couk,504-4988 Donec Avenue,4851,Sweden
Caesar England,1-647-234-2237,sagittis@aol.ca,888-2656 Duis St.,87381,Belgium
Sonya Frederick,1-651-743-5851,eu.nulla@aol.org,432 Malesuada. Street,684086,Mexico
Louis Allison,(551) 517-2013,eget.massa.suspendisse@protonmail.org,2027 Dapibus Road,241288,Netherlands
Mona Harding,1-177-758-5052,vestibulum@aol.ca,554 Mauris Ave,58035,Costa Rica
August Lancaster,(612) 930-6416,nibh.aliquam@hotmail.couk,Ap #548-3059 Proin Rd.,14-484,Netherlands
Aidan Riggs,(594) 677-9271,libero.lacus@aol.couk,Ap #700-2984 At Avenue,854196,United States
Mufutau Contreras,(988) 831-8525,mauris.quis.turpis@aol.couk,"P.O. Box 503, 3449 Euismod Rd.",7591,Mexico
Tiger Luna,1-288-473-2737,iaculis.quis@aol.couk,"P.O. Box 470, 5641 Dolor Ave",G71 4LG,Austria
Odysseus Lewis,(382) 561-1458,est.tempor@hotmail.couk,929-6928 Eget St.,22128,Spain
Hedwig Lara,(851) 476-6355,felis.orci@icloud.couk,948-8007 Urna. Av.,8242,Sweden
Kylan Britt,(784) 311-1279,mattis.semper@icloud.ca,696-1703 Diam. Ave,8741,Nigeria
Kenyon Dudley,(935) 758-1805,id.mollis@protonmail.edu,586-3564 Mi. St.,234558,Costa Rica
Declan Perry,1-787-277-7579,felis.nulla.tempor@outlook.com,Ap #352-639 Eu Street,74783-204,Spain
Colby Roman,1-243-357-3643,dapibus@google.org,"P.O. Box 927, 2031 Diam Av.",58623,United States
Mannix Lane,(263) 112-7597,curabitur.ut.odio@yahoo.net,401-3091 Ornare Rd.,64984,United States
Mannix Foley,1-789-835-4438,libero.proin@aol.edu,922-1955 Fringilla Road,35146,Turkey
Rahim House,(352) 334-3372,lobortis.tellus@protonmail.net,Ap #902-9357 Pellentesque Rd.,55-028,Philippines
Adele Wise,1-177-655-2921,in@outlook.couk,"P.O. Box 805, 6695 Tempor Av.",25088,France
Indira Dodson,(646) 872-8466,nisl@hotmail.net,"Ap #765-8670 Ultrices, Rd.",78849,Sweden
Rowan Hughes,(148) 353-6638,proin.eget@protonmail.couk,"P.O. Box 337, 3364 Et Road",4992,Peru
Ayanna Curry,(727) 436-5545,non@google.edu,9365 Ut Rd.,427224,Belgium
Fulton Chambers,(626) 236-2934,vitae@yahoo.edu,"Ap #644-5344 Montes, St.",416864,India
Quyn Wolf,(417) 198-1475,dui.semper@google.com,Ap #945-5654 Ut Road,1282 TM,Singapore
Hanna Marshall,1-131-697-8810,vel.pede@hotmail.couk,"Ap #736-7409 Elementum, Rd.",481133,Peru
Laura Glenn,(770) 292-8536,nunc.ac@aol.edu,692-108 Consequat Road,52422-254,Costa Rica
Fredericka Stein,1-519-777-6254,lacus.cras@protonmail.couk,"P.O. Box 313, 1564 Donec St.",28368,Netherlands
Caldwell Acosta,1-688-577-8826,dapibus.ligula@protonmail.ca,Ap #778-6740 Urna St.,199541,South Africa
Avye Lambert,1-150-965-8118,nam.ac@outlook.com,Ap #278-3728 Auctor. St.,3183,New Zealand
Marah Carver,(743) 722-6724,semper.rutrum.fusce@yahoo.org,Ap #358-7349 Magna. Road,40316,United States
Beau Salinas,(214) 732-1398,duis.mi.enim@aol.org,Ap #830-278 Interdum. Av.,02287,Colombia
Kevin Pearson,1-319-816-3062,et@yahoo.net,809-6844 Scelerisque Ave,6414 JG,Spain
Arthur Davidson,1-785-655-4334,volutpat@hotmail.com,1521 Nunc St.,7835,Canada
Martin Rollins,(614) 795-0581,molestie.orci@hotmail.edu,"773-8633 Non, Ave",87-34,Canada
Haviva Sloan,1-231-327-3485,nec@protonmail.net,Ap #588-5967 Blandit Rd.,89444-752,South Africa
Uriel Underwood,(258) 264-3744,arcu.vel@yahoo.couk,"P.O. Box 948, 146 Sem Ave",223731,Ukraine
Dolan Emerson,(707) 517-7512,egestas.urna.justo@yahoo.edu,3400 Aliquam Avenue,27115,Brazil
Stephanie Miles,(592) 673-9806,interdum.enim.non@hotmail.net,Ap #365-2039 Eu Road,269566,Turkey
Jade Best,1-898-283-5889,donec.fringilla.donec@google.ca,723-1308 Ligula Ave,M8W 2LM,Netherlands
Igor Whitfield,(817) 331-7364,augue.porttitor@hotmail.couk,Ap #262-8414 Non Ave,335773,United Kingdom
Neil Rutledge,(518) 741-3083,vulputate.velit.eu@outlook.edu,962-2736 Curabitur Ave,600551,South Korea
Martena Reyes,(921) 378-4420,lacus.cras@protonmail.ca,Ap #382-3922 Velit Ave,8441,Turkey
Zephania Lawrence,1-656-283-1045,sed.id.risus@protonmail.org,8320 Arcu Rd.,3553-4514,Australia
Shaine Kirby,1-683-212-3464,nulla@protonmail.edu,206-8942 Porttitor Road,61972-541,China
Candice Kennedy,1-383-578-7538,et.malesuada@yahoo.edu,"754-3261 Dolor, Rd.",882289,Singapore
Mufutau Stevenson,1-877-377-3335,nullam.lobortis@protonmail.org,"P.O. Box 355, 3270 Pede Rd.",54641-01381,Nigeria
Otto Dotson,(710) 282-1133,mollis.phasellus.libero@google.org,"965-557 Placerat, St.",3263,China
Zena Baldwin,(947) 367-6736,curabitur.sed@protonmail.com,"P.O. Box 973, 8440 Facilisi. St.",174797,Nigeria
Olympia Briggs,(642) 655-4310,sem.eget@outlook.ca,"P.O. Box 748, 8822 Arcu. Street",8426,Chile
Gloria Byers,(382) 386-1546,tellus.sem@aol.net,"P.O. Box 488, 809 Augue, Av.",46514,Australia
Nicholas Green,(721) 944-1238,urna.nullam.lobortis@outlook.couk,594-4909 Ut Street,432614,Norway
Chava Frederick,(727) 188-4308,maecenas.mi@aol.ca,810-9523 Quis St.,343791,Philippines
Harrison Haney,(349) 256-5832,quis.lectus@icloud.com,256-5255 Nonummy Av.,781672,Peru
Scarlet Lowe,(668) 433-7312,morbi@hotmail.ca,318-8926 Elit. St.,777897,Poland
Maile Buchanan,(719) 711-8729,quisque.ornare@hotmail.net,152-2413 Malesuada St.,50201,South Africa
Meredith Pennington,(342) 112-6593,donec.tempor.est@protonmail.couk,956-8054 Malesuada Rd.,561469,South Africa
Oscar Mullen,(350) 227-5821,fames.ac.turpis@hotmail.com,Ap #848-4089 Mauris Rd.,214372,Nigeria
Reuben Patterson,1-875-868-4187,nec.orci.donec@icloud.net,Ap #582-8524 Fusce Street,8428,Canada
Hayley Francis,(767) 419-8048,nec@icloud.couk,"511-2713 In, Road",86855,Austria
Perry Lawson,1-526-447-0298,bibendum@icloud.edu,Ap #696-7724 Orci. Rd.,3324,Italy
Perry Moran,1-948-372-1537,nunc.mauris@icloud.net,237-928 Felis Road,14240,Singapore
Boris Delaney,1-237-858-1311,consequat.lectus@outlook.org,"Ap #105-1182 Suscipit, Street",33862-80926,Indonesia
Veronica Lynch,(437) 234-5015,sed.pede.cum@google.org,160-4298 Convallis Road,82391,Canada
Jackson Gonzalez,1-452-881-4007,enim.mi.tempor@icloud.couk,"P.O. Box 216, 1065 At, Ave",R5O 4YF,Pakistan
Colleen Stevens,(571) 917-4202,vitae@icloud.edu,Ap #239-7477 Velit Street,8406,Mexico
Edan Hinton,1-654-786-2336,vitae@protonmail.couk,"884-8785 Nec, Rd.",d5G 3S9,China
Allistair Emerson,(824) 896-8651,vulputate.dui@aol.ca,"P.O. Box 607, 1580 Ornare, St.",73221,Colombia
Karyn Dyer,1-285-814-8333,tempus.lorem@outlook.org,Ap #365-8945 Pellentesque Rd.,42312,United States
Courtney Gallagher,(851) 832-5274,dictum.eu@hotmail.net,Ap #717-165 Penatibus Avenue,CX3W 0IR,South Africa
Nayda Browning,(786) 398-7798,est@icloud.couk,631-4858 Ullamcorper Avenue,51316,Colombia
Forrest Lee,1-222-552-8073,interdum.curabitur.dictum@aol.org,"P.O. Box 632, 8370 Est Av.",530456,Pakistan
Jane Ball,1-728-855-8436,sodales.purus@protonmail.com,4418 Massa Av.,5661,Belgium
Jermaine Schwartz,(756) 618-6846,fusce.dolor.quam@icloud.org,102-4494 Ligula. St.,C6 3HM,Pakistan
Fuller Horton,(111) 555-6705,a@protonmail.ca,Ap #254-5166 Ornare. Ave,1461,Colombia
Duncan Holder,1-388-437-3578,dolor.quisque@aol.couk,Ap #469-1506 Dignissim. Street,5463,United Kingdom
Melyssa Colon,1-632-611-6758,nascetur.ridiculus.mus@outlook.couk,Ap #442-9071 Porttitor Rd.,58271-241,Germany
Zeph Cobb,1-413-248-2364,metus.aenean.sed@hotmail.org,926-7262 Sit Avenue,5554-2372,France
Martha Houston,(545) 462-1390,tellus.lorem@google.com,666-4642 Tellus Ave,O4R 1G1,Costa Rica
Benedict Hensley,(828) 712-0193,nunc.pulvinar@hotmail.org,Ap #411-5363 Non Avenue,6516,Italy
Keegan Simmons,1-529-712-4273,neque@protonmail.org,"Ap #327-7543 Dui, Av.",21614,France
Myra Nolan,(143) 636-3332,vehicula.et@aol.edu,Ap #545-1072 Non Rd.,5115,United Kingdom
Olivia Pace,1-628-783-3988,ac@google.ca,9989 Eu St.,741634,France
Zephr Carver,1-852-995-9176,et.magnis@outlook.edu,"218-7031 Id, St.",25110,Canada
Brianna Good,1-460-524-8572,molestie.arcu@aol.org,307-3186 Justo. Avenue,77127,Indonesia
Hadassah Wong,1-343-734-0467,dignissim.lacus@outlook.couk,Ap #296-1957 Nullam St.,567413,Sweden
Brianna Hopper,1-544-555-9383,eget.metus@yahoo.org,370-1852 Porttitor Street,16246,Indonesia
Cade Todd,1-268-388-9474,hendrerit.a.arcu@outlook.net,Ap #993-9969 Vel Av.,23413,Costa Rica
Freya Jackson,1-718-504-8127,ultrices.sit@google.org,104-3122 Posuere Ave,72-725,France
Omar Stark,1-523-390-7021,massa@protonmail.ca,Ap #886-2503 Et Avenue,12566,Italy
