name,phone,email,address,postalZip,country
Adam Reilly,(420) 241-2744,etiam.bibendum.fermentum@outlook.com,882-4702 Lectus Ave,2978,Philippines
Shelley Nash,1-284-642-4884,eget@hotmail.edu,798-1833 Luctus Avenue,3416,France
Frances Dodson,(452) 635-7263,quam@protonmail.edu,Ap #247-5762 Commodo Rd.,72198,Pakistan
Venus Saunders,(285) 603-1186,dui@outlook.net,Ap #707-8980 Egestas Street,YN3M 6HZ,Germany
Jillian Franks,(873) 671-5026,accumsan.sed.facilisis@outlook.edu,963 Egestas Rd.,82617,Sweden
Cameron Doyle,(438) 868-9320,est.arcu@outlook.edu,"Ap #286-2926 Vitae, Street",88762-371,Italy
Shoshana Snow,1-787-965-5129,donec@yahoo.edu,101-2605 Lacinia Ave,861733,Brazil
Nathan Compton,1-787-713-1450,nascetur.ridiculus@outlook.org,"P.O. Box 941, 2501 Vitae, Ave",4745,United States
Vladimir Chase,(541) 186-7682,pede.nonummy@hotmail.ca,3874 Eros. Rd.,6647,Pakistan
Benedict Marshall,(254) 768-4403,aliquam.ultrices.iaculis@outlook.couk,193-2752 Faucibus Avenue,371316,Austria
Ferdinand Sanders,(354) 958-0242,netus.et@aol.org,7333 Vestibulum. Road,367523,Ukraine
Adara Macdonald,1-495-651-8439,accumsan.neque@outlook.org,Ap #745-8317 Ac Rd.,264445,Mexico
Jermaine Saunders,(264) 664-1026,vitae.sodales@google.edu,Ap #194-1140 Eleifend St.,87528,Mexico
Keegan Eaton,(747) 862-6665,nunc.nulla@aol.org,396-7322 Netus Avenue,37238,United Kingdom
Kaseem Todd,1-473-518-5843,interdum.nunc@google.edu,590-9223 Vestibulum Av.,40264,France
Yolanda Guthrie,(592) 745-6344,ornare.fusce@google.ca,5068 Eros Street,7086,United Kingdom
Colby Randall,1-715-532-5648,egestas.aliquam.fringilla@protonmail.com,"739 Auctor, Rd.",88135,Philippines
Silas Payne,(736) 450-3512,ultrices.posuere.cubilia@aol.org,Ap #655-1273 Eros Av.,29713,Pakistan
Jermaine Chavez,(429) 314-8663,ullamcorper@hotmail.edu,Ap #863-8391 Imperdiet Av.,9746-7710,Vietnam
Marcia Mooney,1-374-315-4786,quisque.fringilla@yahoo.edu,Ap #325-6491 Egestas Road,419388,Costa Rica
Derek Singleton,1-946-563-3872,feugiat.metus@icloud.couk,Ap #497-9247 Imperdiet St.,42311,Philippines
Nero Hansen,(817) 596-2835,fringilla.ornare@protonmail.ca,888-254 Et St.,61-137,New Zealand
Desiree Winters,1-333-858-1577,pede.cras@hotmail.couk,Ap #502-3937 Nullam Avenue,605810,Nigeria
Caleb Kidd,(722) 831-9877,donec.est@outlook.couk,Ap #252-5147 Donec St.,5442,Singapore
Serina Peters,1-545-643-0974,sed.pharetra@google.net,8097 Metus. Av.,750093,Mexico
Destiny Moran,(596) 624-8387,nunc.laoreet.lectus@yahoo.org,190-5808 Etiam Rd.,669886,Turkey
Rahim Strong,1-237-467-3106,laoreet.lectus.quis@google.ca,772-984 Metus Street,24896,Costa Rica
Cora Butler,(633) 873-5923,malesuada.fames@protonmail.couk,Ap #138-9591 Nunc Ave,875714,Costa Rica
Patricia Fox,(740) 462-3255,lobortis.quis@icloud.ca,277-9513 In Avenue,N2G 6L1,Russian Federation
Dora Stafford,1-285-217-0303,eu.placerat@outlook.ca,Ap #387-8153 Eu Ave,1277-4262,Mexico
Oscar Kelley,(933) 915-2694,amet@hotmail.ca,888-6235 Dis Av.,6456,Poland
Wyatt Bennett,(127) 774-3531,at.fringilla.purus@aol.org,"P.O. Box 637, 6660 Nec St.",61-83,Indonesia
Rae Brewer,(330) 494-6178,elementum.sem@aol.couk,777 Eleifend St.,559332,Mexico
Ima Blackburn,(489) 439-6584,primis.in.faucibus@aol.edu,"835-8974 Non, St.",H8N 8B3,Vietnam
Abraham Kirk,1-623-512-2160,ante.ipsum@google.net,Ap #602-2335 Fermentum Ave,85302,New Zealand
Lee Love,1-154-222-7852,amet.metus.aliquam@yahoo.net,"393-9248 Mauris, Road",942725,China
Hadassah Cline,1-215-366-2302,lorem@icloud.edu,"Ap #236-2861 Montes, Rd.",38955,Colombia
Cruz Chavez,(685) 762-0862,odio.phasellus.at@outlook.couk,802-4656 A Street,85657-739,Sweden
Amir Stanton,(781) 336-1817,consequat.nec.mollis@outlook.couk,"P.O. Box 121, 8090 Nam Ave",291573,Russian Federation
Flavia Knox,(386) 575-4045,imperdiet.nec.leo@yahoo.org,144-2304 Ipsum Street,50811,Poland
Griffin Roy,(300) 458-0905,augue.ut.lacus@yahoo.com,130-3778 Ornare. St.,611556,Italy
Gloria Odom,1-664-495-0282,suspendisse.sed@yahoo.couk,Ap #296-958 Magna St.,225184,Indonesia
Drake Middleton,1-513-664-6337,eu@outlook.org,Ap #642-6838 Duis Street,8648-2110,Mexico
Rigel Moss,(692) 392-1247,erat@hotmail.ca,Ap #669-5336 Iaculis Rd.,5766,South Africa
Ebony Wiley,1-667-345-6877,tempus.lorem@google.net,Ap #842-3926 Curae Ave,187343,South Africa
Anjolie Barker,1-488-531-1426,nunc@icloud.couk,"404-5760 A, Street",IG2 1SP,Turkey
Gil Stuart,1-282-667-9814,mauris@icloud.org,8526 Vel Av.,97702,United Kingdom
Ian Richards,(481) 336-7819,dui.cras@icloud.edu,"Ap #819-8862 Amet, Rd.",1286,Canada
Kylan Fischer,1-358-714-8664,mauris.vestibulum.neque@google.edu,"2798 A, Avenue",8195,South Korea
Ferris Patton,(418) 415-2683,gravida.praesent@icloud.couk,Ap #618-6678 Libero Street,67-477,United States
Charlotte Carroll,1-460-878-2541,nisi.nibh@aol.com,9767 Quisque Ave,23736,Turkey
Julie Glenn,(723) 617-7241,elementum@aol.com,"P.O. Box 100, 9546 Malesuada Road",1451-3326,Poland
Herman Clements,(311) 924-6754,dolor@hotmail.net,629-1150 Rutrum Ave,3782,Colombia
Rachel Macdonald,1-651-501-9077,eros.nam@outlook.com,Ap #983-2765 Tincidunt Av.,170378,Pakistan
Samantha Fuller,(461) 612-7786,tempor.erat@google.edu,"8779 Orci, St.",44620,Canada
Demetrius Malone,1-226-315-4421,feugiat@google.ca,9903 Purus Road,415846,Ukraine
Leo Maxwell,(322) 325-2238,luctus@hotmail.ca,"P.O. Box 859, 5405 Interdum Rd.",1844,Ireland
Avye Barrett,(665) 124-3776,ac.sem@icloud.org,5271 Cras Rd.,3166,United States
Brendan Martin,(263) 646-9152,eget@yahoo.org,"P.O. Box 892, 4622 Eu Avenue",88566-222,Austria
Chastity Miranda,(444) 332-4820,vestibulum@google.ca,Ap #300-9870 Amet St.,41317,South Korea
Odessa Hamilton,(597) 564-6623,cursus.in@hotmail.org,6030 Libero. Avenue,309278,United States
Nasim Herman,(827) 678-3931,nam.porttitor@protonmail.ca,964-7760 Cras St.,39662,India
Nicholas Roth,(748) 815-5498,commodo@hotmail.net,5699 Mattis Av.,686648,Colombia
Candace Sanders,1-243-231-6749,cras.vulputate@yahoo.edu,"Ap #488-9465 Iaculis, Street",1236,South Korea
Derek Hull,1-622-855-6864,laoreet.ipsum.curabitur@aol.com,"249-8025 Vestibulum, Ave",409868,Netherlands
Cairo Fox,(928) 252-2367,nibh.lacinia@yahoo.ca,574-2682 Aliquam Ave,45359,Costa Rica
Rhona Campos,(658) 733-6486,lobortis@protonmail.ca,Ap #981-9354 Nisi Ave,11073-93130,Australia
Mohammad Frazier,1-642-617-6097,nec@protonmail.ca,7942 Nibh Road,884616,Ireland
Martha Cole,(774) 703-8555,sed.sem@aol.couk,Ap #298-9234 Ipsum Street,61644,Nigeria
Alexis Atkins,(818) 482-9237,sed.nunc@aol.ca,522-5871 Ut Ave,359842,Poland
Helen Valencia,1-815-402-9616,dolor.fusce@aol.ca,919-4725 Nec Road,38754-26448,Russian Federation
Ashely Mccoy,1-268-464-5260,erat@hotmail.couk,Ap #545-7645 Venenatis Rd.,45776,France
Hiram Ferguson,(238) 907-7818,montes.nascetur.ridiculus@google.org,Ap #365-2312 Posuere St.,21924,Austria
Tanya Robles,(126) 487-7270,dignissim.maecenas@google.ca,404-3507 Aliquam St.,61724,Russian Federation
Kibo Robinson,1-276-417-6237,ultricies.dignissim@google.couk,694-9634 Nulla Av.,186276,Ireland
Echo Burton,1-640-485-3768,eros.nam.consequat@outlook.ca,"P.O. Box 755, 8892 Sed St.",5285-1771,Netherlands
Thor Oliver,1-238-565-9068,nec.quam@icloud.com,Ap #912-882 Quis Ave,56062,Nigeria
Burton Hewitt,1-323-738-1450,nec@aol.net,3245 Parturient St.,5507,Mexico
Calvin Cook,1-868-101-8212,dapibus.rutrum.justo@protonmail.net,Ap #586-7979 Tellus. Rd.,28266,United States
Ryder Hopper,1-688-518-1176,per@yahoo.couk,205-8068 Lorem. Avenue,20717,Mexico
Tobias Ferrell,(212) 326-2161,per@icloud.ca,"613-7461 Quis, Av.",819539,Mexico
Ifeoma Mcbride,(816) 502-7667,auctor.velit@yahoo.org,9441 Etiam Ave,358876,Belgium
Mannix Mayo,1-244-442-0154,faucibus@icloud.ca,707-2172 Placerat Rd.,878632,Poland
Phelan Gardner,1-588-511-6514,cursus.a@yahoo.com,807-7921 Non Avenue,534244,Brazil
Orlando Stuart,1-724-624-4904,mollis.lectus@google.edu,2250 Ipsum Rd.,294310,Brazil
Demetria Underwood,(798) 258-6083,enim.diam@icloud.ca,241-5012 Vitae Av.,3932,Costa Rica
Margaret Lamb,1-442-244-9681,nascetur.ridiculus@outlook.ca,687-8220 Duis St.,396785,Ukraine
Nasim Norris,(668) 846-8182,erat@protonmail.couk,226-7882 Cubilia Rd.,4287,Australia
Dalton Klein,1-374-226-4816,non.lorem.vitae@protonmail.com,827-7502 Facilisis. Road,195861,Brazil
David Atkinson,1-768-479-2206,et.magnis@icloud.ca,Ap #585-4329 Sem St.,663364,Costa Rica
Ila Schneider,(646) 737-0248,suscipit.est@hotmail.org,"P.O. Box 301, 7277 Fusce Road",8804,Canada
Noah Mcdowell,(864) 536-2074,urna.et.arcu@aol.ca,Ap #219-8766 Nunc Rd.,94-87,Italy
Alika Cardenas,(527) 211-4131,sed.congue@google.net,2629 Orci Ave,35615,Peru
Cecilia James,(405) 768-8584,donec.nibh@outlook.com,Ap #715-519 Aliquam Ave,2216,Australia
Lysandra O'Neill,1-486-904-2544,a.facilisis@outlook.org,679-4785 Velit Road,4171,Peru
Jana Albert,1-276-846-8125,sed.dictum@yahoo.couk,775-2221 Parturient St.,401626,Ireland
Nigel Crawford,(364) 844-9167,integer.sem@protonmail.edu,"P.O. Box 196, 516 Varius Street",8653,Indonesia
Blossom Travis,1-655-404-6777,duis.volutpat.nunc@protonmail.couk,"8379 Amet, St.",2559,Pakistan
Rowan Burt,(506) 683-8832,sem.consequat@hotmail.net,Ap #641-8498 Et St.,22812-944,Russian Federation
Gabriel Garner,1-101-764-7357,risus.morbi.metus@google.edu,370-6475 Congue. Street,4118 GR,United Kingdom
