name,phone,email,address,postalZip,country
Olivia Estrada,(618) 459-2565,rhoncus.donec@yahoo.couk,"Ap #765-6974 At, Avenue",3974,Germany
Callum Lindsey,1-796-584-8541,neque.morbi@outlook.net,"P.O. Box 832, 8132 Vivamus St.",1656 RW,Australia
Cameron Reeves,(264) 261-5215,faucibus.lectus@yahoo.edu,Ap #721-6107 Vitae Av.,11407,South Korea
Maisie Santos,1-847-671-6346,cursus.non@icloud.org,"P.O. Box 560, 2849 Mauris Avenue",41454,Ukraine
Blake Mcfarland,(635) 385-9883,quisque.fringilla.euismod@protonmail.ca,3011 Neque Street,28591,Colombia
Alexandra Burns,1-993-343-4933,imperdiet@icloud.edu,905-3009 Auctor Road,8458,South Korea
Ella Farmer,(556) 847-2132,aenean.sed@protonmail.org,Ap #310-6668 Neque Avenue,20840,Mexico
Wallace Neal,1-420-878-3213,enim.diam@outlook.couk,Ap #730-2244 Curabitur Road,236503,Brazil
Lucius Watkins,1-757-875-6274,amet.consectetuer@outlook.net,133-2565 Faucibus Avenue,786466,Singapore
Signe Todd,1-479-286-2326,aliquet@google.net,Ap #661-7453 Laoreet Rd.,8146,China
Martena Ward,1-667-365-8759,turpis.in@yahoo.ca,"P.O. Box 492, 6187 Malesuada Road",7146 VA,Russian Federation
Miranda English,1-644-373-6239,et@aol.org,277-3240 Mauris St.,K22 8JU,Spain
Levi Gomez,(672) 663-7817,gravida.mauris@yahoo.org,429-3338 Sit Av.,8861,China
John Baxter,1-432-575-8524,est@protonmail.com,310-9900 Elit St.,681862,Australia
Kirby Freeman,(641) 344-3024,morbi.metus@icloud.couk,Ap #299-6929 Nunc Rd.,2618,Poland
Rudyard Alston,1-612-945-6565,lorem.ipsum@icloud.org,6788 Mauris St.,2055,Singapore
Baxter Holder,1-149-459-9748,vestibulum.ut@protonmail.couk,Ap #338-1347 Accumsan St.,197358,Peru
Honorato Norman,(655) 535-4485,nec@outlook.com,"944-3958 Nunc, Street",5786,Philippines
Addison Scott,(685) 327-8226,metus.in@outlook.com,Ap #639-9900 Nam Street,23485,Nigeria
Louis Sawyer,(238) 651-1291,in.mi@icloud.net,3727 Tempor Ave,14104,Poland
Chadwick Meyers,1-764-956-2667,cras.interdum.nunc@hotmail.org,9718 Ipsum. Av.,57704,Austria
Melissa Barry,1-569-641-4558,metus.aenean@yahoo.edu,4748 Neque St.,618454,Turkey
Azalia Hutchinson,(323) 579-2336,suspendisse@protonmail.com,9272 Ut Rd.,792943,United States
Charity Ellison,1-743-661-2477,duis.gravida.praesent@protonmail.org,8252 Enim Avenue,65344,United Kingdom
Ciaran Tyson,1-515-536-2888,sed.libero@aol.couk,556-9850 Gravida. Rd.,687347,Norway
Macon Barnett,1-603-862-8881,molestie.tellus.aenean@icloud.ca,Ap #472-1246 Magna. Av.,269234,Ireland
James Wilkins,1-264-165-2613,ac.eleifend.vitae@hotmail.couk,547-537 Malesuada Street,625566,Philippines
Emily Glover,(762) 761-3243,non@protonmail.org,"P.O. Box 413, 269 Ac Rd.",873188,Vietnam
Dale Fox,1-628-210-3256,donec.felis@yahoo.edu,678-5024 Magna. Ave,48-77,Italy
Channing Barrera,(751) 450-3986,sapien.nunc@aol.edu,"P.O. Box 669, 3216 Etiam St.",432966,Spain
Anthony Fry,(431) 273-2718,leo@outlook.edu,Ap #947-3493 Ipsum Street,442534,Pakistan
Ria Kirby,1-334-711-8153,nullam.velit@icloud.edu,"P.O. Box 197, 4822 Quisque Av.",0514 PW,China
Patrick Day,(971) 643-2232,et.ipsum.cursus@icloud.com,Ap #457-1453 Consectetuer Avenue,832022,Italy
Hanae Booth,(618) 306-8483,quis@icloud.net,515-6600 Cras St.,24853,Peru
Porter Rollins,(501) 449-6685,tempor.arcu@aol.couk,Ap #206-3514 Dis Av.,2185,Costa Rica
Melvin Hopkins,(895) 191-9668,id.erat@yahoo.net,"Ap #935-5343 Eu, Ave",24187,Indonesia
Sydney Perkins,(534) 775-1554,non@yahoo.net,Ap #505-2160 Malesuada Street,5789,Peru
Alvin Davidson,1-528-347-5539,ac.orci.ut@outlook.net,7530 Luctus Ave,73036,Belgium
Meghan Wheeler,1-766-718-5747,porta.elit@outlook.net,Ap #416-6705 Gravida Ave,238737,Indonesia
Peter Stephenson,(709) 617-4225,aliquet.lobortis.nisi@outlook.couk,621-6804 Amet St.,392197,South Africa
Clarke Ferguson,(565) 149-2365,iaculis.odio@outlook.couk,920-1502 Leo St.,86224,Indonesia
Jeanette Workman,1-645-636-6842,arcu.ac.orci@hotmail.ca,996-4967 Dictum. Street,879152,Sweden
Hanae Moon,(727) 515-9995,lectus.a@google.net,Ap #622-3886 Massa Avenue,248685,New Zealand
Ann Castillo,(481) 117-5321,sit.amet.metus@aol.net,Ap #387-982 Eu Street,41156,Italy
Maisie Reyes,1-588-227-8486,tempus.eu.ligula@protonmail.edu,6457 Mauris Ave,15348,Mexico
Bert Orr,1-852-171-1382,proin.vel.nisl@protonmail.edu,3375 Imperdiet Av.,443261,Peru
Curran Meyer,(889) 504-4242,pellentesque.tellus@aol.net,957-6549 Proin St.,286737,Poland
Ishmael Byrd,1-861-828-5778,nisi.cum.sociis@outlook.org,"P.O. Box 309, 3872 Tempus Av.",488119,Canada
Ima Crawford,(626) 246-8372,elit.aliquam.auctor@yahoo.net,8761 Sit Avenue,4573,Turkey
Brianna Richard,1-832-810-4115,cum.sociis@google.org,Ap #141-6241 Pellentesque. Ave,57574,Pakistan
Tyler Haney,1-912-528-2399,vitae.nibh@icloud.com,Ap #459-9292 Quam Av.,65769-647,New Zealand
Rhonda Barr,1-997-610-9883,morbi@aol.com,Ap #960-9747 Purus Road,847346,Poland
Zena Atkinson,(953) 462-9115,ut.mi@hotmail.couk,453-9032 At Rd.,U65 2UD,Germany
Ramona Franks,1-308-332-7880,nec.orci.donec@google.com,6700 Laoreet St.,159485,Vietnam
Ulysses Justice,(448) 314-4049,lobortis.risus@protonmail.edu,"Ap #692-8795 Vulputate, Ave",4258-6102,Pakistan
Kai Huffman,1-429-674-4364,egestas.ligula@yahoo.couk,469-2502 Leo Street,29019,Peru
Maris Blankenship,1-345-726-6776,donec.felis@outlook.net,113-7579 Erat. Avenue,639703,Mexico
Zane Newman,1-319-123-5148,ante.maecenas@aol.org,Ap #272-3453 Diam. Road,68848,South Korea
Helen Rogers,(451) 337-5842,mauris.suspendisse@yahoo.edu,4263 Aenean St.,154745,Vietnam
Tate Rodriquez,1-568-354-2562,nisl.maecenas@yahoo.ca,110-9144 Malesuada Road,235445,Spain
Patricia Rowland,1-122-829-5627,augue.id@yahoo.ca,Ap #880-7860 Eu Ave,398515,New Zealand
Emi Carson,(635) 973-6003,amet.lorem@protonmail.org,5756 Nibh. Rd.,1713 PC,Mexico
Simon Cunningham,1-346-260-5458,integer.tincidunt@protonmail.edu,Ap #406-3525 Amet Av.,3894 PA,Colombia
Quin Nash,1-595-287-1165,pede@aol.couk,398-529 Consectetuer St.,59230,Russian Federation
Willa Lowery,1-908-448-2867,non@protonmail.edu,Ap #116-7938 Lacinia. Rd.,287148,Poland
Sierra Duke,1-252-760-8613,scelerisque.lorem@icloud.couk,"914-7563 Nec, Av.",445888,Sweden
Laurel Shelton,1-213-593-2338,libero.proin@yahoo.ca,232-4903 Dictum Rd.,2384,Philippines
Talon Little,1-281-722-5221,per@outlook.com,3015 Auctor Rd.,29923,Brazil
Althea Kelly,(786) 700-2884,sed.facilisis@yahoo.ca,Ap #722-2263 Ultrices St.,27322-66552,Austria
Laith Head,1-149-151-7611,fermentum.risus@google.net,2075 Eleifend Av.,14122,China
Yetta Oneal,(242) 538-9081,dolor.sit@outlook.com,463-7236 Sit Avenue,346892,Netherlands
Tatum Vazquez,(538) 423-9948,nunc.mauris.sapien@google.com,978-9681 Mi Ave,74447,Brazil
Kenyon Best,1-479-741-4993,in.tempus@protonmail.edu,"P.O. Box 376, 2456 Proin Street",4443,Costa Rica
Devin Page,1-680-273-5116,sit.amet@google.com,485-5182 Lorem Rd.,4437,Norway
Mona Ochoa,(497) 649-3503,ac.mattis@yahoo.org,9380 Risus. Av.,726799,Norway
Fletcher Mcmahon,(262) 484-5467,ornare@aol.com,Ap #971-1576 Aliquam Street,583340,Germany
Quynn Hurley,(302) 522-7560,nibh@google.org,"Ap #995-6710 Enim, Road",83858,Singapore
Dorothy Richmond,1-130-611-6489,purus.accumsan@protonmail.com,"P.O. Box 991, 8307 Aliquet, St.",81138,United Kingdom
Judah Jenkins,1-637-528-0405,ac.urna.ut@hotmail.couk,"P.O. Box 877, 2036 Amet Road",16543,Poland
Ray Benton,(345) 839-1488,amet@hotmail.org,9818 Aliquet. Rd.,4715,Turkey
Tana Crosby,(826) 847-4066,ad@icloud.com,"6157 Pellentesque, St.",51911,Poland
Pandora Wells,1-235-480-7747,sed@yahoo.net,Ap #503-5876 A St.,81201,Pakistan
Fuller Burch,1-912-763-5715,orci@google.org,Ap #363-7647 Accumsan Road,03366,Germany
Brady Bass,1-712-877-4523,mauris.rhoncus@google.org,"P.O. Box 898, 2344 Lectus Rd.",56-193,United Kingdom
Stewart Carr,1-371-576-7422,et@hotmail.ca,"P.O. Box 994, 3443 Leo, Av.",58075,South Korea
Blaze Bauer,1-863-501-8805,sed.sem.egestas@yahoo.org,"798-2181 A, St.",93836,China
Mechelle Jackson,1-753-827-0133,nam@yahoo.edu,"Ap #411-9881 Nec, Street",64772,Vietnam
Duncan Alvarez,(312) 626-8878,dolor.nonummy.ac@yahoo.ca,Ap #842-4822 Vestibulum St.,8112,Chile
Amery Jacobs,(745) 495-4334,enim.sit@protonmail.org,Ap #712-5521 Urna. Av.,25157-284,Nigeria
Jenette Banks,1-808-889-6632,pede.ultrices@icloud.ca,"523-5937 Tempus, St.",8353,Turkey
Merrill Le,(794) 578-5129,ligula.elit@outlook.ca,567-3499 Mauris St.,29544,Pakistan
Justine Horne,1-983-418-1803,libero@yahoo.edu,Ap #997-3259 Ultrices. Street,28823,South Africa
Charissa Hall,(178) 288-0624,proin.sed@hotmail.com,Ap #391-8685 Donec Street,53703,Belgium
Ashely Gonzalez,1-373-843-8531,ut@icloud.ca,Ap #418-6048 A Rd.,77442-22357,Australia
Carson Aguirre,1-489-733-6871,dictum.augue@hotmail.org,Ap #429-925 Fringilla Street,8574,Peru
Lewis Dalton,(361) 217-7543,dapibus.quam@google.ca,282-7561 Est. Ave,718714,China
Hamilton Cain,1-723-221-9171,aenean.egestas.hendrerit@icloud.edu,"P.O. Box 760, 788 Netus Rd.",13876,South Africa
Phoebe Whitley,1-829-688-6648,amet.metus@yahoo.com,6167 Nec Ave,157354,Australia
Zahir Wheeler,(723) 883-4131,vestibulum@protonmail.edu,"Ap #748-798 Non, Rd.",74844,Spain
Eric Sanders,1-527-572-7823,sed@google.edu,Ap #742-5812 Nunc Road,11392,Netherlands
